[{"OBJECT_NAME":"STARLINK-35131","OBJECT_ID":"2025-235T","EPOCH":"2026-03-09T16:59:42.373248","MEAN_MOTION":15.30199624,"ECCENTRICITY":0.00010683,"INCLINATION":53.1578,"RA_OF_ASC_NODE":245.2262,"ARG_OF_PERICENTER":46.1174,"MEAN_ANOMALY":313.9915,"EPHEMERIS_TYPE":0,"CLASSIFICATION_TYPE":"U","NORAD_CAT_ID":66075,"ELEMENT_SET_NO":999,"REV_AT_EPOCH":2292,"BSTAR":0.0005599778,"MEAN_MOTION_DOT":0.00016262,"MEAN_MOTION_DDOT":0},{"OBJECT_NAME":"SL-19 R\/B","OBJECT_ID":"2011-005B","EPOCH":"2026-03-09T21:50:35.538720","MEAN_MOTION":15.57556472,"ECCENTRICITY":0.01260184,"INCLINATION":99.3438,"RA_OF_ASC_NODE":178.5978,"ARG_OF_PERICENTER":174.8144,"MEAN_ANOMALY":185.4445,"EPHEMERIS_TYPE":0,"CLASSIFICATION_TYPE":"U","NORAD_CAT_ID":37363,"ELEMENT_SET_NO":999,"REV_AT_EPOCH":82354,"BSTAR":0.00054776137,"MEAN_MOTION_DOT":0.00058791,"MEAN_MOTION_DDOT":0}]
